start=new Date('2023-06-22T00:00:00.000Z').valueOf();
sats=[{"SITE":"AFETR","REF_FRAME":"TEME","TLE_LINE1":"1 44966U 20001BE  23172.42759633  .00036570  00000-0  19082-2 0  9999","RA_OF_ASC_NODE":"75.8629","ARG_OF_PERICENTER":"58.2873","RCS_SIZE":"LARGE","PERIOD":"95.011","NORAD_CAT_ID":"44966","APOAPSIS":"520.561","GP_ID":"234430858","ECCENTRICITY":"0.00021170","FILE":"3939133","MEAN_MOTION":"15.15619268","CENTER_NAME":"EARTH","DECAY_DATE":null,"COUNTRY_CODE":"US","PERIAPSIS":"517.641","TIME_SYSTEM":"UTC","SEMIMAJOR_AXIS":"6897.236","OBJECT_TYPE":"PAYLOAD","OBJECT_NAME":"STARLINK-1088","OBJECT_ID":"2020-001BE","MEAN_MOTION_DDOT":"0.0000000000000","MEAN_MOTION_DOT":"0.00036570","TLE_LINE2":"2 44966  53.0544  75.8629 0002117  58.2873 301.8326 15.15619268190921","LAUNCH_DATE":"2020-01-07","INCLINATION":"53.0544","REV_AT_EPOCH":"19092","MEAN_ELEMENT_THEORY":"SGP4","EPHEMERIS_TYPE":"0","BSTAR":"0.00190820000000","EPOCH":"2023-06-21T10:15:44.322912","CLASSIFICATION_TYPE":"U","MEAN_ANOMALY":"301.8326","ELEMENT_SET_NO":"999"},{"EPOCH":"2023-06-21T11:30:36.713376","CLASSIFICATION_TYPE":"U","MEAN_ANOMALY":"284.6472","ELEMENT_SET_NO":"999","REV_AT_EPOCH":"19086","INCLINATION":"53.0540","MEAN_ELEMENT_THEORY":"SGP4","BSTAR":"0.00151440000000","EPHEMERIS_TYPE":"0","MEAN_MOTION_DOT":"0.00022350","MEAN_MOTION_DDOT":"0.0000000000000","TLE_LINE2":"2 44967  53.0540  80.8276 0001166  75.4647 284.6472 15.06404104190869","LAUNCH_DATE":"2020-01-07","SEMIMAJOR_AXIS":"6925.336","OBJECT_TYPE":"PAYLOAD","OBJECT_NAME":"STARLINK-1089","OBJECT_ID":"2020-001BF","TIME_SYSTEM":"UTC","GP_ID":"234443181","ECCENTRICITY":"0.00011660","FILE":"3939313","MEAN_MOTION":"15.06404104","CENTER_NAME":"EARTH","DECAY_DATE":null,"PERIAPSIS":"546.393","COUNTRY_CODE":"US","APOAPSIS":"548.008","SITE":"AFETR","REF_FRAME":"TEME","TLE_LINE1":"1 44967U 20001BF  23172.47959159  .00022350  00000-0  15144-2 0  9996","RA_OF_ASC_NODE":"80.8276","RCS_SIZE":"LARGE","ARG_OF_PERICENTER":"75.4647","PERIOD":"95.592","NORAD_CAT_ID":"44967"},{"OBJECT_ID":"2020-001BG","OBJECT_NAME":"STARLINK-1090","SEMIMAJOR_AXIS":"6925.333","OBJECT_TYPE":"PAYLOAD","TLE_LINE2":"2 44968  53.0540  80.8397 0001380  71.6371 288.4768 15.06405022190864","LAUNCH_DATE":"2020-01-07","MEAN_MOTION_DDOT":"0.0000000000000","MEAN_MOTION_DOT":"0.00017573","EPHEMERIS_TYPE":"0","BSTAR":"0.00119550000000","INCLINATION":"53.0540","REV_AT_EPOCH":"19086","MEAN_ELEMENT_THEORY":"SGP4","EPOCH":"2023-06-21T11:25:18.560064","ELEMENT_SET_NO":"999","CLASSIFICATION_TYPE":"U","MEAN_ANOMALY":"288.4768","PERIOD":"95.592","RCS_SIZE":"LARGE","ARG_OF_PERICENTER":"71.6371","NORAD_CAT_ID":"44968","TLE_LINE1":"1 44968U 20001BG  23172.47590926  .00017573  00000-0  11955-2 0  9997","REF_FRAME":"TEME","SITE":"AFETR","RA_OF_ASC_NODE":"80.8397","APOAPSIS":"548.154","DECAY_DATE":null,"CENTER_NAME":"EARTH","COUNTRY_CODE":"US","PERIAPSIS":"546.242","ECCENTRICITY":"0.00013800","FILE":"3939133","GP_ID":"234431860","MEAN_MOTION":"15.06405022","TIME_SYSTEM":"UTC"},{"SITE":"AFETR","REF_FRAME":"TEME","TLE_LINE1":"1 44969U 20001BH  23172.46853069  .00022385  00000-0  15169-2 0  9995","RA_OF_ASC_NODE":"80.8714","RCS_SIZE":"LARGE","PERIOD":"95.592","ARG_OF_PERICENTER":"79.2147","NORAD_CAT_ID":"44969","APOAPSIS":"547.980","GP_ID":"234430356","ECCENTRICITY":"0.00011120","FILE":"3939133","MEAN_MOTION":"15.06401057","CENTER_NAME":"EARTH","DECAY_DATE":null,"COUNTRY_CODE":"US","PERIAPSIS":"546.440","TIME_SYSTEM":"UTC","SEMIMAJOR_AXIS":"6925.345","OBJECT_TYPE":"PAYLOAD","OBJECT_NAME":"STARLINK-1092","OBJECT_ID":"2020-001BH","MEAN_MOTION_DDOT":"0.0000000000000","MEAN_MOTION_DOT":"0.00022385","TLE_LINE2":"2 44969  53.0537  80.8714 0001112  79.2147 280.8967 15.06401057190852","LAUNCH_DATE":"2020-01-07","REV_AT_EPOCH":"19085","INCLINATION":"53.0537","MEAN_ELEMENT_THEORY":"SGP4","BSTAR":"0.00151690000000","EPHEMERIS_TYPE":"0","EPOCH":"2023-06-21T11:14:41.051616","CLASSIFICATION_TYPE":"U","MEAN_ANOMALY":"280.8967","ELEMENT_SET_NO":"999"},{"ELEMENT_SET_NO":"999","MEAN_ANOMALY":"284.2946","CLASSIFICATION_TYPE":"U","EPOCH":"2023-06-21T10:42:49.976064","BSTAR":"0.00152570000000","EPHEMERIS_TYPE":"0","MEAN_ELEMENT_THEORY":"SGP4","REV_AT_EPOCH":"19084","INCLINATION":"53.0542","LAUNCH_DATE":"2020-01-07","TLE_LINE2":"2 44970  53.0542  80.9729 0001191  75.8176 284.2946 15.06397236190845","MEAN_MOTION_DDOT":"0.0000000000000","MEAN_MOTION_DOT":"0.00022515","OBJECT_ID":"2020-001BJ","OBJECT_NAME":"STARLINK-1093","OBJECT_TYPE":"PAYLOAD","SEMIMAJOR_AXIS":"6925.357","TIME_SYSTEM":"UTC","COUNTRY_CODE":"US","PERIAPSIS":"546.397","DECAY_DATE":null,"CENTER_NAME":"EARTH","MEAN_MOTION":"15.06397236","ECCENTRICITY":"0.00011910","FILE":"3939133","GP_ID":"234430359","APOAPSIS":"548.047","NORAD_CAT_ID":"44970","PERIOD":"95.592","RCS_SIZE":"LARGE","ARG_OF_PERICENTER":"75.8176","RA_OF_ASC_NODE":"80.9729","TLE_LINE1":"1 44970U 20001BJ  23172.44641176  .00022515  00000-0  15257-2 0  9992","SITE":"AFETR","REF_FRAME":"TEME"},{"OBJECT_ID":"2020-001BL","OBJECT_NAME":"STARLINK-1107","SEMIMAJOR_AXIS":"6925.353","OBJECT_TYPE":"PAYLOAD","TLE_LINE2":"2 44972  53.0551  80.8033 0001268  96.7411 263.3723 15.06398580190869","LAUNCH_DATE":"2020-01-07","MEAN_MOTION_DOT":"0.00000379","MEAN_MOTION_DDOT":"0.0000000000000","BSTAR":"0.00004433200000","EPHEMERIS_TYPE":"0","REV_AT_EPOCH":"19086","INCLINATION":"53.0551","MEAN_ELEMENT_THEORY":"SGP4","EPOCH":"2023-06-21T11:35:54.160800","ELEMENT_SET_NO":"999","MEAN_ANOMALY":"263.3723","CLASSIFICATION_TYPE":"U","ARG_OF_PERICENTER":"96.7411","RCS_SIZE":"LARGE","PERIOD":"95.592","NORAD_CAT_ID":"44972","TLE_LINE1":"1 44972U 20001BL  23172.48326575  .00000379  00000-0  44332-4 0  9993","SITE":"AFETR","REF_FRAME":"TEME","RA_OF_ASC_NODE":"80.8033","APOAPSIS":"548.096","DECAY_DATE":null,"CENTER_NAME":"EARTH","PERIAPSIS":"546.340","COUNTRY_CODE":"US","ECCENTRICITY":"0.00012680","FILE":"3939133","GP_ID":"234431109","MEAN_MOTION":"15.06398580","TIME_SYSTEM":"UTC"},{"APOAPSIS":"548.178","TLE_LINE1":"1 44973U 20001BM  23172.06306535  .00013910  00000-0  95144-3 0  9993","REF_FRAME":"TEME","SITE":"AFETR","RA_OF_ASC_NODE":"82.6970","RCS_SIZE":"LARGE","PERIOD":"95.594","ARG_OF_PERICENTER":"81.8772","NORAD_CAT_ID":"44973","TIME_SYSTEM":"UTC","FILE":"3939133","ECCENTRICITY":"0.00012900","GP_ID":"234431361","MEAN_MOTION":"15.06376784","DECAY_DATE":null,"CENTER_NAME":"EARTH","PERIAPSIS":"546.391","COUNTRY_CODE":"US","MEAN_MOTION_DDOT":"0.0000000000000","MEAN_MOTION_DOT":"0.00013910","TLE_LINE2":"2 44973  53.0541  82.6970 0001290  81.8772 278.2363 15.06376784190798","LAUNCH_DATE":"2020-01-07","SEMIMAJOR_AXIS":"6925.420","OBJECT_TYPE":"PAYLOAD","OBJECT_ID":"2020-001BM","OBJECT_NAME":"STARLINK-1115","EPOCH":"2023-06-21T01:30:48.846240","ELEMENT_SET_NO":"999","MEAN_ANOMALY":"278.2363","CLASSIFICATION_TYPE":"U","INCLINATION":"53.0541","REV_AT_EPOCH":"19079","MEAN_ELEMENT_THEORY":"SGP4","BSTAR":"0.00095144000000","EPHEMERIS_TYPE":"0"},{"APOAPSIS":"548.114","NORAD_CAT_ID":"45044","RCS_SIZE":"LARGE","ARG_OF_PERICENTER":"68.0227","PERIOD":"95.593","RA_OF_ASC_NODE":"42.8143","TLE_LINE1":"1 45044U 20006A   23172.03728561  .00023336  00000-0  15807-2 0  9992","REF_FRAME":"TEME","SITE":"AFETR","TIME_SYSTEM":"UTC","COUNTRY_CODE":"US","PERIAPSIS":"546.361","DECAY_DATE":null,"CENTER_NAME":"EARTH","MEAN_MOTION":"15.06392241","FILE":"3939133","ECCENTRICITY":"0.00012660","GP_ID":"234430365","LAUNCH_DATE":"2020-01-29","TLE_LINE2":"2 45044  53.0534  42.8143 0001266  68.0227 292.0897 15.06392241187120","MEAN_MOTION_DOT":"0.00023336","MEAN_MOTION_DDOT":"0.0000000000000","OBJECT_ID":"2020-006A","OBJECT_NAME":"STARLINK-1132","OBJECT_TYPE":"PAYLOAD","SEMIMAJOR_AXIS":"6925.372","ELEMENT_SET_NO":"999","MEAN_ANOMALY":"292.0897","CLASSIFICATION_TYPE":"U","EPOCH":"2023-06-21T00:53:41.476704","EPHEMERIS_TYPE":"0","BSTAR":"0.00158070000000","MEAN_ELEMENT_THEORY":"SGP4","REV_AT_EPOCH":"18712","INCLINATION":"53.0534"},{"MEAN_ELEMENT_THEORY":"SGP4","INCLINATION":"53.0541","REV_AT_EPOCH":"18690","EPHEMERIS_TYPE":"0","BSTAR":"0.00069488000000","ELEMENT_SET_NO":"999","MEAN_ANOMALY":"285.4430","CLASSIFICATION_TYPE":"U","EPOCH":"2023-06-21T10:06:58.795776","OBJECT_TYPE":"PAYLOAD","SEMIMAJOR_AXIS":"6925.320","OBJECT_ID":"2020-006B","OBJECT_NAME":"STARLINK-1120","MEAN_MOTION_DOT":"0.00010086","MEAN_MOTION_DDOT":"0.0000000000000","LAUNCH_DATE":"2020-01-29","TLE_LINE2":"2 45045  53.0541  61.0745 0001045  74.6674 285.4430 15.06409353186901","MEAN_MOTION":"15.06409353","ECCENTRICITY":"0.00010450","FILE":"3939133","GP_ID":"234431115","COUNTRY_CODE":"US","PERIAPSIS":"546.461","DECAY_DATE":null,"CENTER_NAME":"EARTH","TIME_SYSTEM":"UTC","RA_OF_ASC_NODE":"61.0745","TLE_LINE1":"1 45045U 20006B   23172.42151384  .00010086  00000-0  69488-3 0  9992","REF_FRAME":"TEME","SITE":"AFETR","NORAD_CAT_ID":"45045","ARG_OF_PERICENTER":"74.6674","RCS_SIZE":"LARGE","PERIOD":"95.592","APOAPSIS":"547.909"},{"APOAPSIS":"548.069","RA_OF_ASC_NODE":"61.0653","TLE_LINE1":"1 45047U 20006D   23172.42615950  .00019394  00000-0  13164-2 0  9998","REF_FRAME":"TEME","SITE":"AFETR","NORAD_CAT_ID":"45047","RCS_SIZE":"LARGE","PERIOD":"95.591","ARG_OF_PERICENTER":"85.2299","TIME_SYSTEM":"UTC","MEAN_MOTION":"15.06425139","ECCENTRICITY":"0.00013460","FILE":"3939133","GP_ID":"234431367","PERIAPSIS":"546.204","COUNTRY_CODE":"US","DECAY_DATE":null,"CENTER_NAME":"EARTH","MEAN_MOTION_DOT":"0.00019394","MEAN_MOTION_DDOT":"0.0000000000000","LAUNCH_DATE":"2020-01-29","TLE_LINE2":"2 45047  53.0549  61.0653 0001346  85.2299 274.8844 15.06425139186905","OBJECT_TYPE":"PAYLOAD","SEMIMAJOR_AXIS":"6925.272","OBJECT_ID":"2020-006D","OBJECT_NAME":"STARLINK-1131","ELEMENT_SET_NO":"999","CLASSIFICATION_TYPE":"U","MEAN_ANOMALY":"274.8844","EPOCH":"2023-06-21T10:13:40.180800","MEAN_ELEMENT_THEORY":"SGP4","INCLINATION":"53.0549","REV_AT_EPOCH":"18690","BSTAR":"0.00131640000000","EPHEMERIS_TYPE":"0"}];
